NORAD_CAT_ID,OBJECT_NAME,OBJECT_TYPE,EPOCH,MEAN_MOTION,ECCENTRICITY,INCLINATION,RA_OF_ASC_NODE,ARG_OF_PERICENTER,MEAN_ANOMALY,BSTAR,MEAN_MOTION_DOT,MEAN_MOTION_DDOT,TLE_LINE0,TLE_LINE1,TLE_LINE2,SEMIMAJOR_AXIS,PERIOD,APOGEE,PERIGEE,DECAYED
54793.0,STARLINK-5433,PAYLOAD,2023-01-21 00:35:09,15.73216466,0.0001226,53.2175,136.7976,112.8602,247.2548,0.00010371,0.00013969,0.0,0 STARLINK-5433,1 54793U 22175AM  23021.02441628  .00013969  00000-0  10371-3 0  9993,2 54793  53.2175 136.7976 0001226 112.8602 247.2548 15.73216466  5124,6727.848000000001,91.532,350.538,348.88800000000003,0.0
54793.0,STARLINK-5433,PAYLOAD,2023-01-21 11:15:31,15.73205804,8.02e-05,53.2185,134.5976,84.3486,275.7626,1.8317e-05,1.953e-05,0.0,0 STARLINK-5433,1 54793U 22175AM  23021.46911245  .00001953  00000-0  18317-4 0  9997,2 54793  53.2185 134.5976 0000802  84.3486 275.7626 15.73205804  5197,6727.879,91.533,350.283,349.204,0.0
54793.0,STARLINK-5433,PAYLOAD,2023-01-21 14:18:28,15.7322168,8.09e-05,53.2177,133.9684,96.9993,263.1119,9.9059e-05,0.00013317,0.0,0 STARLINK-5433,1 54793U 22175AM  23021.59616546  .00013317  00000-0  99059-4 0  9996,2 54793  53.2177 133.9684 0000809  96.9993 263.1119 15.73221680  5217,6727.8330000000005,91.532,350.24300000000005,349.154,0.0
54793.0,STARLINK-5433,PAYLOAD,2023-01-22 10:07:43,15.73216737,9.53e-05,53.2188,129.8802,64.3942,295.7177,0.00015679,0.00021456,0.0,0 STARLINK-5433,1 54793U 22175AM  23022.42203339  .00021456  00000-0  15679-3 0  9999,2 54793  53.2188 129.8802 0000953  64.3942 295.7177 15.73216737  5344,6727.847,91.532,350.35400000000004,349.071,0.0
54793.0,STARLINK-5433,PAYLOAD,2023-01-22 23:51:02,15.73222694,8.950000000000001e-05,53.2186,127.0508,74.2814,285.8305,9.2117e-05,0.0001234,0.0,0 STARLINK-5433,1 54793U 22175AM  23022.99378022  .00012340  00000-0  92117-4 0  9998,2 54793  53.2186 127.0508 0000895  74.2814 285.8305 15.73222694  5430,6727.83,91.532,350.298,349.093,0.0
54793.0,STARLINK-5433,PAYLOAD,2023-01-23 07:28:26,15.73219731,8.149999999999999e-05,53.2178,125.481,87.0416,273.0697,4.9772e-05,6.377e-05,0.0,0 STARLINK-5433,1 54793U 22175AM  23023.31141749  .00006377  00000-0  49772-4 0  9991,2 54793  53.2178 125.4810 0000815  87.0416 273.0697 15.73219731  5487,6727.839,91.532,350.25199999999995,349.156,0.0
54793.0,STARLINK-5433,PAYLOAD,2023-01-23 13:34:21,15.73204553,0.0001141,53.2176,124.2239,109.4813,250.6331,-1.816e-05,-3.168e-05,0.0,0 STARLINK-5433,1 54793U 22175AM  23023.56553048 -.00003168  00000-0 -18160-4 0  9991,2 54793  53.2176 124.2239 0001141 109.4813 250.6331 15.73204553  5527,6727.882,91.533,350.515,348.98,0.0
54793.0,STARLINK-5433,PAYLOAD,2023-01-25 12:50:14,15.73215979,0.0001244,53.2176,114.4795,103.9843,256.1316,1.8196e-05,1.936e-05,0.0,0 STARLINK-5433,1 54793U 22175AM  23025.53489307  .00001936  00000-0  18196-4 0  9994,2 54793  53.2176 114.4795 0001244 103.9843 256.1316 15.73215979  5833,6727.85,91.532,350.552,348.87800000000004,0.0
54793.0,STARLINK-5433,PAYLOAD,2023-01-26 01:02:05,15.73206452,0.0001127,53.2187,111.962,104.3749,255.7396,1.2199e-05,1.093e-05,0.0,0 STARLINK-5433,1 54793U 22175AM  23026.04312126  .00001093  00000-0  12199-4 0  9996,2 54793  53.2187 111.9620 0001127 104.3749 255.7396 15.73206452  5912,6727.877,91.533,350.5,348.98400000000004,0.0
54793.0,STARLINK-5433,PAYLOAD,2023-01-26 11:42:27,15.73200706,0.0001351999999999,53.2187,109.7615,97.0695,263.0479,1.7925e-06,-3.68e-06,0.0,0 STARLINK-5433,1 54793U 22175AM  23026.48781750 -.00000368  00000-0  17925-5 0  9995,2 54793  53.2187 109.7615 0001352  97.0695 263.0479 15.73200706  8147,6727.893,91.533,350.668,348.849,0.0
54793.0,STARLINK-5433,PAYLOAD,2023-01-27 01:25:46,15.73209678,0.0001184,53.2182,106.9328,91.8958,268.2198,1.6567e-05,1.707e-05,0.0,0 STARLINK-5433,1 54793U 22175AM  23027.05956811  .00001707  00000-0  16567-4 0  9998,2 54793  53.2182 106.9328 0001184  91.8958 268.2198 15.73209678  6071,6727.868,91.533,350.529,348.936,0.0
54793.0,STARLINK-5433,PAYLOAD,2023-01-27 09:03:10,15.73211403,0.0001264,53.2179,105.3607,89.4177,270.6988,2.3809e-05,2.724e-05,0.0,0 STARLINK-5433,1 54793U 22175AM  23027.37720677  .00002724  00000-0  23809-4 0  9999,2 54793  53.2179 105.3607 0001264  89.4177 270.6988 15.73211403  8283,6727.863,91.533,350.57800000000003,348.87699999999995,0.0
54793.0,STARLINK-5433,PAYLOAD,2023-01-28 01:49:27,15.73210871,0.0001306,53.2176,101.9039,87.1429,272.9741,1.6441e-05,1.689e-05,0.0,0 STARLINK-5433,1 54793U 22175AM  23028.07601290  .00001689  00000-0  16441-4 0  9999,2 54793  53.2176 101.9039 0001306  87.1429 272.9741 15.73210871  6236,6727.8640000000005,91.533,350.608,348.851,0.0
54793.0,STARLINK-5433,PAYLOAD,2023-01-28 10:58:20,15.73203378,0.0001135,53.2185,100.0177,89.0337,271.0813,-5.088e-06,-1.334e-05,0.0,0 STARLINK-5433,1 54793U 22175AM  23028.45718163 -.00001334  00000-0 -50880-5 0  9994,2 54793  53.2185 100.0177 0001135  89.0337 271.0813 15.73203378  8458,6727.886,91.533,350.514,348.987,0.0
54793.0,STARLINK-5433,PAYLOAD,2023-01-29 11:22:01,15.73208315,0.0001252,53.2179,94.9872,97.7427,262.3735,9.1374e-06,6.63e-06,0.0,0 STARLINK-5433,1 54793U 22175AM  23029.47362539  .00000663  00000-0  91374-5 0  9994,2 54793  53.2179  94.9872 0001252  97.7427 262.3735 15.73208315  6450,6727.871,91.533,350.579,348.894,0.0
54793.0,STARLINK-5433,PAYLOAD,2023-01-30 10:14:13,15.73204817,0.0001314,53.2189,90.271,76.2459,283.8707,3.6614e-06,-1.06e-06,0.0,0 STARLINK-5433,1 54793U 22175AM  23030.42654690 -.00000106  00000-0  36614-5 0  9992,2 54793  53.2189  90.2710 0001314  76.2459 283.8707 15.73204817  6604,6727.881,91.533,350.63,348.862,0.0
54793.0,STARLINK-5433,PAYLOAD,2023-01-30 20:54:35,15.7320293,0.0001287,53.2185,88.0708,86.6238,273.4929,7.7555e-06,4.69e-06,0.0,0 STARLINK-5433,1 54793U 22175AM  23030.87124400  .00000469  00000-0  77555-5 0  9992,2 54793  53.2185  88.0708 0001287  86.6238 273.4929 15.73202930  8833,6727.887,91.533,350.618,348.886,0.0
54793.0,STARLINK-5433,PAYLOAD,2023-01-31 03:00:30,15.73220848,0.000137,53.2183,86.815,80.0695,280.048,4.5116e-05,5.721e-05,0.0,0 STARLINK-5433,1 54793U 22175AM  23031.12534905  .00005721  00000-0  45116-4 0  9999,2 54793  53.2183  86.8150 0001370  80.0695 280.0480 15.73220848  6715,6727.836,91.532,350.622,348.779,0.0
54793.0,STARLINK-5433,PAYLOAD,2023-01-31 10:37:54,15.73218445,0.0001399,53.2188,85.2435,73.9549,286.1625,5.9324e-05,7.72e-05,0.0,0 STARLINK-5433,1 54793U 22175AM  23031.44298952  .00007720  00000-0  59324-4 0  9990,2 54793  53.2188  85.2435 0001399  73.9549 286.1625 15.73218445  8922,6727.843,91.532,350.649,348.766,0.0
54793.0,STARLINK-5433,PAYLOAD,2023-02-01 01:52:42,15.73217867,0.0001352,53.2184,82.0994,86.6628,273.4546,3.4199e-05,4.185e-05,0.0,0 STARLINK-5433,1 54793U 22175AM  23032.07826637  .00004185  00000-0  34199-4 0  9992,2 54793  53.2184  82.0994 0001352  86.6628 273.4546 15.73217867  6860,6727.844,91.532,350.619,348.8,0.0
54793.0,STARLINK-5433,PAYLOAD,2023-02-01 09:30:06,15.73206603,0.0001402,53.2188,80.5277,66.3617,293.755,1.4173e-05,1.37e-05,0.0,0 STARLINK-5433,1 54793U 22175AM  23032.39590861  .00001370  00000-0  14173-4 0  9997,2 54793  53.2188  80.5277 0001402  66.3617 293.7550 15.73206603  6912,6727.876,91.533,350.685,348.798,0.0
54793.0,STARLINK-5433,PAYLOAD,2023-02-01 12:33:04,15.73204701,0.0001355,53.219,79.8999,70.6693,289.4473,1.064e-05,8.74e-06,0.0,0 STARLINK-5433,1 54793U 22175AM  23032.52296503  .00000874  00000-0  10640-4 0  9991,2 54793  53.2190  79.8999 0001355  70.6693 289.4473 15.73204701  9091,6727.882,91.533,350.658,348.835,0.0
54793.0,STARLINK-5433,PAYLOAD,2023-02-01 23:13:26,15.73197273,6.14e-05,53.2204,77.6969,104.5199,255.589,2.9533e-06,-2.04e-06,0.0,0 STARLINK-5433,1 54793U 22175AM  23032.96766286 -.00000204  00000-0  29533-5 0  9999,2 54793  53.2204  77.6969 0000614 104.5199 255.5890 15.73197273  7006,6727.903,91.533,350.181,349.355,0.0
54793.0,STARLINK-5433,PAYLOAD,2023-02-02 08:22:18,15.73228602,0.0001133,53.2185,75.8099,93.5735,266.5414,0.00011027,0.00014902,0.0,0 STARLINK-5433,1 54793U 22175AM  23033.34882331  .00014902  00000-0  11027-3 0  9998,2 54793  53.2185  75.8099 0001133  93.5735 266.5414 15.73228602  9229,6727.814,91.532,350.441,348.916,0.0
54793.0,STARLINK-5433,PAYLOAD,2023-02-03 02:40:04,15.73220866,0.0001349,53.2186,72.0396,70.3375,289.7791,6.7854e-05,8.921e-05,0.0,0 STARLINK-5433,1 54793U 22175AM  23034.11116112  .00008921  00000-0  67854-4 0  9995,2 54793  53.2186  72.0396 0001349  70.3375 289.7791 15.73220866  7183,6727.836,91.532,350.608,348.793,0.0
54793.0,STARLINK-5433,PAYLOAD,2023-02-03 11:48:57,15.73209573,0.0002045,53.2187,70.1565,50.188,309.932,5.8029e-05,7.534e-05,0.0,0 STARLINK-5433,1 54793U 22175AM  23034.49232688  .00007534  00000-0  58029-4 0  9996,2 54793  53.2187  70.1565 0002045  50.1880 309.9320 15.73209573  7244,6727.868,91.533,351.109,348.357,0.0
54793.0,STARLINK-5433,PAYLOAD,2023-02-04 09:09:40,15.73233728,0.0001809,53.2177,65.7538,49.2689,310.8488,0.00014444,0.00019728,0.0,0 STARLINK-5433,1 54793U 22175AM  23035.38171568  .00019728  00000-0  14444-3 0  9994,2 54793  53.2177  65.7538 0001809  49.2689 310.8488 15.73233728  9546,6727.799,91.531,350.881,348.447,0.0
54793.0,STARLINK-5433,PAYLOAD,2023-02-05 08:01:52,15.73223253,0.0001397,53.218,61.043,88.5788,271.5393,0.00010269,0.0001383,0.0,0 STARLINK-5433,1 54793U 22175AM  23036.33463519  .00013830  00000-0  10269-3 0  9999,2 54793  53.2180  61.0430 0001397  88.5788 271.5393 15.73223253  7535,6727.829,91.532,350.634,348.754,0.0
54793.0,STARLINK-5433,PAYLOAD,2023-02-05 12:36:19,15.73201381,0.0001062,53.2184,60.098,62.2722,297.8406,1.6654e-05,1.718e-05,0.0,0 STARLINK-5433,1 54793U 22175AM  23036.52522174  .00001718  00000-0  16654-4 0  9990,2 54793  53.2184  60.0980 0001062  62.2722 297.8406 15.73201381  9721,6727.891,91.533,350.471,349.042,0.0
